     2.10           NAVIGATION DATA                         RINEX VERSION / TYPE
goGPS                                                       PGM / RUN BY / DATE 
    1.3970D-08 -1.4901D-08 -5.9605D-08  1.1921D-07          ION ALPHA           
    1.1878D+05 -2.4576D+05  5.8775D-39  8.5197D+05          ION BETA            
                                                            END OF HEADER       
 1 12 12 12 12  0  0.0 2.871104516089D-04 2.046363078989D-12 0.000000000000D+00
    5.400000000000D+01-6.937500000000D+00 5.199145136692D-09 7.784031957318D-01
   -2.551823854446D-07 1.488592824899D-03 4.811212420464D-06 5.153696325302D+03
    3.024000000000D+05 3.539025783539D-08 1.541395630595D+00 9.313225746155D-09
    9.595597895854D-01 2.829687500000D+02 5.240266318355D-01-8.271058808513D-09
   -2.253665302777D-10 0.000000000000D+00 1.718000000000D+03 0.000000000000D+00
    0.000000000000D+00 0.000000000000D+00 8.381903171539D-09 5.400000000000D+01
    3.024000000000D+05 0.000000000000D+00 0.000000000000D+00 0.000000000000D+00
 3 12 12 12 12  0  0.0 1.406255178154D-04 5.002220859751D-12 0.000000000000D+00
    3.100000000000D+01-1.718750000000D+01 5.102355390725D-09 1.958920560836D+00
   -1.041218638420D-06 1.585910888389D-02 1.192837953568D-05 5.153761940002D+03
    3.024000000000D+05-1.117587089539D-08 3.561558371945D-01-3.445893526077D-07
    9.332046386676D-01 1.331875000000D+02 1.258663975104D+00-7.969974838586D-09
    7.886042771050D-10 0.000000000000D+00 1.718000000000D+03 0.000000000000D+00
    1.000000000000D+00 0.000000000000D+00-4.656612873077D-09 3.100000000000D+01
    3.024000000000D+05 0.000000000000D+00 0.000000000000D+00 0.000000000000D+00
 6 12 12 12 12  0  0.0 4.269387573004D-04-1.284661266254D-11 0.000000000000D+00
    4.700000000000D+01 4.625000000000D+00 5.012351641708D-09-2.422696025048D+00
    3.408640623093D-07 7.475960999727D-03 1.143105328083D-05 5.153684324265D+03
    3.024000000000D+05-1.788139343262D-07 4.343133664150D-01 9.499490261078D-08
    9.398859523082D-01 1.489687500000D+02-4.077053544959D-01-8.007476400676D-09
    7.986046936624D-10 0.000000000000D+00 1.718000000000D+03 0.000000000000D+00
    0.000000000000D+00 0.000000000000D+00-5.122274160385D-09 4.700000000000D+01
    3.024000000000D+05 0.000000000000D+00 0.000000000000D+00 0.000000000000D+00
11 12 12 12 12  0  0.0-3.324844874442D-04-3.865352482535D-12 0.000000000000D+00
    1.700000000000D+01 1.643750000000D+01 7.013149268674D-09 6.003289117546D-01
    1.052394509315D-06 1.379788876511D-02 4.611909389496D-06 5.153666433334D+03
    3.024000000000D+05-1.657754182816D-07 1.256596245729D+00 6.519258022308D-08
    8.880115004205D-01 2.525625000000D+02 1.130832616312D+00-9.422178185827D-09
    8.571785620706D-11 0.000000000000D+00 1.718000000000D+03 0.000000000000D+00
    0.000000000000D+00 0.000000000000D+00-1.164153218269D-08 1.700000000000D+01
    3.024000000000D+05 0.000000000000D+00 0.000000000000D+00 0.000000000000D+00
14 12 12 12 12  0  0.0 2.181516028941D-04 5.684341886081D-13 0.000000000000D+00
    4.700000000000D+01 1.667500000000D+02 3.873732785091D-09 2.988049001286D+00
    8.653849363327D-06 6.771649350412D-03 5.802139639854D-06 5.153687150955D+03
    3.024000000000D+05 7.078051567078D-08-2.578047841172D+00 1.490116119385D-08
    9.765309515424D-01 2.742187500000D+02-2.015750981262D+00-7.786752920943D-09
    3.589435228671D-10 0.000000000000D+00 1.718000000000D+03 0.000000000000D+00
    0.000000000000D+00 0.000000000000D+00-8.847564458847D-09 4.700000000000D+01
    3.024000000000D+05 0.000000000000D+00 0.000000000000D+00 0.000000000000D+00
19 12 12 12 12  0  0.0-3.302488476038D-04-3.296918293927D-12 0.000000000000D+00
    9.700000000000D+01 1.125000000000D+01 4.676980529298D-09 2.456265647175D+00
    6.370246410370D-07 8.710185647942D-03 1.009926199913D-05 5.153641923904D+03
    3.024000000000D+05-1.955777406693D-07 5.854808345297D-01 4.284083843231D-08
    9.616112937359D-01 1.853437500000D+02 2.736313702335D-01-7.810325331400D-09
    8.025334287386D-10 0.000000000000D+00 1.718000000000D+03 0.000000000000D+00
    0.000000000000D+00 0.000000000000D+00-1.443549990654D-08 9.700000000000D+01
    3.024000000000D+05 0.000000000000D+00 0.000000000000D+00 0.000000000000D+00
20 12 12 12 12  0  0.0 7.621292024851D-05 1.250555214938D-12 0.000000000000D+00
    9.600000000000D+01 1.731250000000D+01 5.123427697043D-09-1.054637218651D+00
    8.139759302139D-07 5.371293751523D-03 1.174584031105D-05 5.153580257416D+03
    3.024000000000D+05-2.235174179077D-08 2.540478606868D+00 7.078051567078D-08
    9.290175974262D-01 1.350625000000D+02 1.274845592859D+00-8.201770208079D-09
   -8.178912113090D-10 0.000000000000D+00 1.718000000000D+03 0.000000000000D+00
    0.000000000000D+00 0.000000000000D+00-7.916241884232D-09 9.600000000000D+01
    3.024000000000D+05 0.000000000000D+00 0.000000000000D+00 0.000000000000D+00
22 12 12 12 11 59 44.0 1.532407477498D-04 9.094947017729D-13 0.000000000000D+00
    2.000000000000D+01 3.406250000000D+01 4.991279335390D-09-2.297002697622D+00
    1.678243279457D-06 6.159938173369D-03 1.159682869911D-05 5.153667943954D+03
    3.023840000000D+05 8.381903171539D-08 2.597008595124D+00-7.078051567078D-08
    9.261811514140D-01 1.389062500000D+02-2.017473463433D+00-7.928187383685D-09
   -6.696707516177D-10 0.000000000000D+00 1.718000000000D+03 0.000000000000D+00
    0.000000000000D+00 0.000000000000D+00-1.722946763039D-08 2.000000000000D+01
    3.023840000000D+05 0.000000000000D+00 0.000000000000D+00 0.000000000000D+00
28 12 12 12 11 59 44.0 2.132360823452D-04 3.637978807092D-12 0.000000000000D+00
    1.000000000000D+00-1.709375000000D+02 3.653366463092D-09-2.357225588502D+00
   -8.767470717430D-06 1.849937788211D-02 9.663403034210D-06 5.153643789291D+03
    3.023840000000D+05 2.440065145493D-07-4.984593061909D-01 2.980232238770D-08
    9.816587251805D-01 1.958125000000D+02-1.807018817564D+00-7.354949220300D-09
    7.357449324439D-11 0.000000000000D+00 1.718000000000D+03 0.000000000000D+00
    0.000000000000D+00 0.000000000000D+00-1.071020960808D-08 1.000000000000D+00
    3.023840000000D+05 0.000000000000D+00 0.000000000000D+00 0.000000000000D+00
32 12 12 12 12  0  0.0-5.162111483514D-04-3.524291969370D-12 0.000000000000D+00
    6.300000000000D+01 4.553125000000D+01 4.484115352832D-09 1.007648462569D+00
    2.287328243256D-06 1.173290342558D-02 1.204758882523D-05 5.153796548843D+03
    3.024000000000D+05 3.073364496231D-07 2.676785832131D+00 4.284083843231D-08
    9.504671802589D-01 1.381250000000D+02-4.366881681465D-01-7.822825852097D-09
   -7.203871498735D-10 0.000000000000D+00 1.718000000000D+03 0.000000000000D+00
    0.000000000000D+00 0.000000000000D+00-3.259629011154D-09 6.300000000000D+01
    3.024000000000D+05 0.000000000000D+00 0.000000000000D+00 0.000000000000D+00
20 12 12 12 14  0  0.0 7.622223347425D-05 1.250555214938D-12 0.000000000000D+00
    1.000000000000D+02 2.021875000000D+01 5.149500211639D-09-4.270990795339D-03
    1.022592186928D-06 5.371478153393D-03 1.138076186180D-05 5.153581201553D+03
    3.096000000000D+05-1.490116119385D-08 2.540419167044D+00 1.117587089539D-08
    9.290116492013D-01 1.425312500000D+02 1.274721042939D+00-8.246414924853D-09
   -7.946759585863D-10 0.000000000000D+00 1.718000000000D+03 0.000000000000D+00
    1.000000000000D+00 0.000000000000D+00-7.916241884232D-09 1.000000000000D+02
    3.096000000000D+05 0.000000000000D+00 0.000000000000D+00 0.000000000000D+00
 1 12 12 12 14  0  0.0 2.871248871088D-04 2.046363078989D-12 0.000000000000D+00
    8.300000000000D+01-6.187500000000D+00 5.217360181136D-09 1.828597669690D+00
   -2.831220626831D-07 1.488635898568D-03 4.950910806656D-06 5.153696287155D+03
    3.096000000000D+05-5.029141902924D-08 1.541335729951D+00 6.519258022308D-08
    9.595585051433D-01 2.827500000000D+02 5.240044115728D-01-8.239271770169D-09
   -1.464346710204D-10 0.000000000000D+00 1.718000000000D+03 0.000000000000D+00
    0.000000000000D+00 0.000000000000D+00 8.381903171539D-09 8.300000000000D+01
    3.096000000000D+05 0.000000000000D+00 0.000000000000D+00 0.000000000000D+00
 3 12 12 12 14  0  0.0 1.406618393958D-04 5.002220859751D-12 0.000000000000D+00
    3.200000000000D+01-4.718750000000D+00 4.962349558920D-09 3.009003882278D+00
   -4.470348358154D-07 1.585768768564D-02 1.182407140732D-05 5.153764839172D+03
    3.096000000000D+05 1.154839992523D-07 3.560996757694D-01-1.490116119385D-07
    9.332107112405D-01 1.332187500000D+02 1.258710453474D+00-7.815682697413D-09
    7.514598727486D-10 0.000000000000D+00 1.718000000000D+03 0.000000000000D+00
    1.000000000000D+00 0.000000000000D+00-4.656612873077D-09 3.200000000000D+01
    3.096000000000D+05 0.000000000000D+00 0.000000000000D+00 0.000000000000D+00
 6 12 12 12 14  0  0.0 4.268460907042D-04-1.284661266254D-11 0.000000000000D+00
    4.800000000000D+01 6.062500000000D+00 5.005208487024D-09-1.372515813078D+00
    1.117587089539D-07 7.475609541871D-03 1.123733818531D-05 5.153684568405D+03
    3.096000000000D+05-1.154839992523D-07 4.342546024587D-01-6.519258022308D-08
    9.398916240416D-01 1.537500000000D+02-4.077077770883D-01-8.126409926163D-09
    8.739649755778D-10 0.000000000000D+00 1.718000000000D+03 0.000000000000D+00
    0.000000000000D+00 0.000000000000D+00-5.122274160385D-09 4.800000000000D+01
    3.096000000000D+05 0.000000000000D+00 0.000000000000D+00 0.000000000000D+00
